STARLINK-1808
1 16707C 20073AP  21326.13162975  .00007425  00000-0  49744-3 0  3267
2 16707  53.0535  63.1520 0001494 273.5659 135.4723 15.06395133    11
